{
  "type": "FeatureCollection",
  "features": [
    {
      "type": "Feature",
      "properties": {
        "norad_id": 37562,
        "name": "IRIDIUM 33 DEB",
        "group": "iridium-33-debris",
        "lat": 37.931954643975416,
        "lon": -134.97678273074797,
        "alt_km": 683.6772010618497,
        "timestamp": "2025-12-02T23:34:15.902265+00:00",
        "meta_object_name": "IRIDIUM 33 DEB",
        "meta_object_id": "1997-051XX",
        "meta_epoch": "2025-12-02T11:38:58.279200",
        "meta_mean_motion": 14.56310782,
        "meta_eccentricity": 0.0026477,
        "meta_inclination": 86.3757,
        "meta_ra_of_asc_node": 48.0711,
        "meta_arg_of_pericenter": 140.1139,
        "meta_mean_anomaly": 279.2058,
        "meta_ephemeris_type": 0,
        "meta_classification_type": "U",
        "meta_norad_cat_id": 37562,
        "meta_element_set_no": 999,
        "meta_rev_at_epoch": 86179,
        "meta_bstar": 0.0014716,
        "meta_mean_motion_dot": 6.569e-05,
        "meta_mean_motion_ddot": 0,
        "tle_line1": "1 37562U 97051XX  25336.48539675  .00006569  00000+0  14716-2 0  9997",
        "tle_line2": "2 37562  86.3757  48.0711 0026477 140.1139 279.2058 14.56310782861798"
      },
      "geometry": {
        "type": "Point",
        "coordinates": [
          -134.97678273074797,
          37.931954643975416
        ]
      }
    },
    {
      "type": "Feature",
      "properties": {
        "norad_id": 37565,
        "name": "IRIDIUM 33 DEB",
        "group": "iridium-33-debris",
        "lat": 83.80966633681416,
        "lon": 157.7853117042621,
        "alt_km": 703.2252928280195,
        "timestamp": "2025-12-02T23:34:15.902275+00:00",
        "meta_object_name": "IRIDIUM 33 DEB",
        "meta_object_id": "1997-051YA",
        "meta_epoch": "2025-12-01T09:04:48.126720",
        "meta_mean_motion": 14.51440972,
        "meta_eccentricity": 0.00151047,
        "meta_inclination": 86.3507,
        "meta_ra_of_asc_node": 14.527,
        "meta_arg_of_pericenter": 117.1302,
        "meta_mean_anomaly": 243.1446,
        "meta_ephemeris_type": 0,
        "meta_classification_type": "U",
        "meta_norad_cat_id": 37565,
        "meta_element_set_no": 999,
        "meta_rev_at_epoch": 65672,
        "meta_bstar": 0.00062987128,
        "meta_mean_motion_dot": 2.537e-05,
        "meta_mean_motion_ddot": 0,
        "tle_line1": "1 37565U 97051YA  25335.37833480  .00002537  00000+0  62987-3 0  9993",
        "tle_line2": "2 37565  86.3507  14.5270 0015104 117.1302 243.1446 14.51440972656729"
      },
      "geometry": {
        "type": "Point",
        "coordinates": [
          157.7853117042621,
          83.80966633681416
        ]
      }
    },
    {
      "type": "Feature",
      "properties": {
        "norad_id": 38017,
        "name": "IRIDIUM 33 DEB",
        "group": "iridium-33-debris",
        "lat": -78.04910718722202,
        "lon": 152.87895748444112,
        "alt_km": 791.9262244679512,
        "timestamp": "2025-12-02T23:34:15.902288+00:00",
        "meta_object_name": "IRIDIUM 33 DEB",
        "meta_object_id": "1997-051YD",
        "meta_epoch": "2025-12-01T06:29:11.103360",
        "meta_mean_motion": 14.48304289,
        "meta_eccentricity": 0.009214,
        "meta_inclination": 86.3439,
        "meta_ra_of_asc_node": 171.2047,
        "meta_arg_of_pericenter": 141.8586,
        "meta_mean_anomaly": 218.9187,
        "meta_ephemeris_type": 0,
        "meta_classification_type": "U",
        "meta_norad_cat_id": 38017,
        "meta_element_set_no": 999,
        "meta_rev_at_epoch": 61236,
        "meta_bstar": 0.0066574,
        "meta_mean_motion_dot": 0.00026341,
        "meta_mean_motion_ddot": 0,
        "tle_line1": "1 38017U 97051YD  25335.27026740  .00026341  00000+0  66574-2 0  9992",
        "tle_line2": "2 38017  86.3439 171.2047 0092140 141.8586 218.9187 14.48304289612362"
      },
      "geometry": {
        "type": "Point",
        "coordinates": [
          152.87895748444112,
          -78.04910718722202
        ]
      }
    },
    {
      "type": "Feature",
      "properties": {
        "norad_id": 38022,
        "name": "IRIDIUM 33 DEB",
        "group": "iridium-33-debris",
        "lat": -34.70623305639953,
        "lon": 18.127226974997487,
        "alt_km": 775.5863088301276,
        "timestamp": "2025-12-02T23:34:15.902298+00:00",
        "meta_object_name": "IRIDIUM 33 DEB",
        "meta_object_id": "1997-051YJ",
        "meta_epoch": "2025-12-01T09:24:18.819072",
        "meta_mean_motion": 14.41139287,
        "meta_eccentricity": 0.00471789,
        "meta_inclination": 86.2706,
        "meta_ra_of_asc_node": 21.4121,
        "meta_arg_of_pericenter": 86.4447,
        "meta_mean_anomaly": 274.2147,
        "meta_ephemeris_type": 0,
        "meta_classification_type": "U",
        "meta_norad_cat_id": 38022,
        "meta_element_set_no": 999,
        "meta_rev_at_epoch": 69030,
        "meta_bstar": 0.0011656877,
        "meta_mean_motion_dot": 3.826e-05,
        "meta_mean_motion_ddot": 0,
        "tle_line1": "1 38022U 97051YJ  25335.39188448  .00003826  00000+0  11657-2 0  9990",
        "tle_line2": "2 38022  86.2706  21.4121 0047178  86.4447 274.2147 14.41139287690302"
      },
      "geometry": {
        "type": "Point",
        "coordinates": [
          18.127226974997487,
          -34.70623305639953
        ]
      }
    },
    {
      "type": "Feature",
      "properties": {
        "norad_id": 38028,
        "name": "IRIDIUM 33 DEB",
        "group": "iridium-33-debris",
        "lat": -64.24443160639935,
        "lon": -3.144787690988402,
        "alt_km": 762.4127960270162,
        "timestamp": "2025-12-02T23:34:15.902309+00:00",
        "meta_object_name": "IRIDIUM 33 DEB",
        "meta_object_id": "1997-051YQ",
        "meta_epoch": "2025-12-02T08:55:29.085024",
        "meta_mean_motion": 14.46151271,
        "meta_eccentricity": 0.0029435,
        "meta_inclination": 86.325,
        "meta_ra_of_asc_node": 4.7758,
        "meta_arg_of_pericenter": 153.8613,
        "meta_mean_anomaly": 206.4083,
        "meta_ephemeris_type": 0,
        "meta_classification_type": "U",
        "meta_norad_cat_id": 38028,
        "meta_element_set_no": 999,
        "meta_rev_at_epoch": 65345,
        "meta_bstar": 0.00044678,
        "meta_mean_motion_dot": 1.624e-05,
        "meta_mean_motion_ddot": 0,
        "tle_line1": "1 38028U 97051YQ  25336.37186441  .00001624  00000+0  44678-3 0  9990",
        "tle_line2": "2 38028  86.3250   4.7758 0029435 153.8613 206.4083 14.46151271653456"
      },
      "geometry": {
        "type": "Point",
        "coordinates": [
          -3.144787690988402,
          -64.24443160639935
        ]
      }
    },
    {
      "type": "Feature",
      "properties": {
        "norad_id": 38228,
        "name": "IRIDIUM 33 DEB",
        "group": "iridium-33-debris",
        "lat": 7.7033272009220735,
        "lon": -127.87820723098139,
        "alt_km": 772.9756737021089,
        "timestamp": "2025-12-02T23:34:15.902319+00:00",
        "meta_object_name": "IRIDIUM 33 DEB",
        "meta_object_id": "1997-051ZC",
        "meta_epoch": "2025-11-29T12:36:14.255136",
        "meta_mean_motion": 14.27233107,
        "meta_eccentricity": 0.00630868,
        "meta_inclination": 86.2984,
        "meta_ra_of_asc_node": 54.0911,
        "meta_arg_of_pericenter": 232.1345,
        "meta_mean_anomaly": 189.6543,
        "meta_ephemeris_type": 0,
        "meta_classification_type": "U",
        "meta_norad_cat_id": 38228,
        "meta_element_set_no": 999,
        "meta_rev_at_epoch": 84593,
        "meta_bstar": 0.00041927733,
        "meta_mean_motion_dot": 1.064e-05,
        "meta_mean_motion_ddot": 0,
        "tle_line1": "1 38228U 97051ZC  25333.52516499  .00001064  00000+0  41928-3 0  9999",
        "tle_line2": "2 38228  86.2984  54.0911 0063086 232.1345 189.6543 14.27233107845930"
      },
      "geometry": {
        "type": "Point",
        "coordinates": [
          -127.87820723098139,
          7.7033272009220735
        ]
      }
    },
    {
      "type": "Feature",
      "properties": {
        "norad_id": 38241,
        "name": "IRIDIUM 33 DEB",
        "group": "iridium-33-debris",
        "lat": -27.638851992587277,
        "lon": 176.83392680680623,
        "alt_km": 717.7949966671667,
        "timestamp": "2025-12-02T23:34:15.902329+00:00",
        "meta_object_name": "IRIDIUM 33 DEB",
        "meta_object_id": "1997-051ZR",
        "meta_epoch": "2025-12-01T08:39:05.059872",
        "meta_mean_motion": 14.54752437,
        "meta_eccentricity": 0.00056988,
        "meta_inclination": 86.3235,
        "meta_ra_of_asc_node": 355.6193,
        "meta_arg_of_pericenter": 96.8352,
        "meta_mean_anomaly": 263.3504,
        "meta_ephemeris_type": 0,
        "meta_classification_type": "U",
        "meta_norad_cat_id": 38241,
        "meta_element_set_no": 999,
        "meta_rev_at_epoch": 60035,
        "meta_bstar": 0.00088099609,
        "meta_mean_motion_dot": 3.793e-05,
        "meta_mean_motion_ddot": 0,
        "tle_line1": "1 38241U 97051ZR  25335.36047523  .00003793  00000+0  88100-3 0  9999",
        "tle_line2": "2 38241  86.3235 355.6193 0005698  96.8352 263.3504 14.54752437600359"
      },
      "geometry": {
        "type": "Point",
        "coordinates": [
          176.83392680680623,
          -27.638851992587277
        ]
      }
    }
  ]
}